[{"OBJECT_NAME":"STARLINK-31769","OBJECT_ID":"2024-080S","EPOCH":"2026-03-09T22:01:33.301920","MEAN_MOTION":15.27558866,"ECCENTRICITY":0.00014814,"INCLINATION":43.003,"RA_OF_ASC_NODE":36.9508,"ARG_OF_PERICENTER":250.4361,"MEAN_ANOMALY":109.6331,"EPHEMERIS_TYPE":0,"CLASSIFICATION_TYPE":"U","NORAD_CAT_ID":59617,"ELEMENT_SET_NO":999,"REV_AT_EPOCH":10456,"BSTAR":-6.6305038e-5,"MEAN_MOTION_DOT":-2.085e-5,"MEAN_MOTION_DDOT":0},{"OBJECT_NAME":"OBJECT B","OBJECT_ID":"2024-092B","EPOCH":"2026-03-09T22:35:16.756224","MEAN_MOTION":15.26654665,"ECCENTRICITY":0.00097063,"INCLINATION":97.6334,"RA_OF_ASC_NODE":195.5822,"ARG_OF_PERICENTER":166.5945,"MEAN_ANOMALY":193.5553,"EPHEMERIS_TYPE":0,"CLASSIFICATION_TYPE":"U","NORAD_CAT_ID":59774,"ELEMENT_SET_NO":999,"REV_AT_EPOCH":10038,"BSTAR":0.00052893964,"MEAN_MOTION_DOT":0.00013825,"MEAN_MOTION_DDOT":0}]
